{
  "type": "FeatureCollection",
  "features": [
    {
      "type": "Feature",
      "properties": {
        "norad_id": 36199,
        "name": "FENGYUN 1C DEB",
        "group": "fengyun-1c-debris",
        "lat": 4.531702561121711,
        "lon": 11.821623987108623,
        "alt_km": 750.7841164634101,
        "timestamp": "2025-12-17T13:48:37.842033+00:00",
        "meta_object_name": "FENGYUN 1C DEB",
        "meta_object_id": "1999-025DTY",
        "meta_epoch": "2025-12-14T18:36:07.375104",
        "meta_mean_motion": 14.2965262,
        "meta_eccentricity": 0.0092845,
        "meta_inclination": 98.2897,
        "meta_ra_of_asc_node": 9.8178,
        "meta_arg_of_pericenter": 61.5398,
        "meta_mean_anomaly": 299.51,
        "meta_ephemeris_type": 0,
        "meta_classification_type": "U",
        "meta_norad_cat_id": 36199,
        "meta_element_set_no": 999,
        "meta_rev_at_epoch": 65009,
        "meta_bstar": 0.00030192646,
        "meta_mean_motion_dot": 7.7e-06,
        "meta_mean_motion_ddot": 0,
        "tle_line1": "1 36199U 99025DTY 25348.77508536  .00000770  00000+0  30193-3 0  9998",
        "tle_line2": "2 36199  98.2897   9.8178 0092845  61.5398 299.5100 14.29652620650099"
      },
      "geometry": {
        "type": "Point",
        "coordinates": [
          11.821623987108623,
          4.531702561121711
        ]
      }
    },
    {
      "type": "Feature",
      "properties": {
        "norad_id": 36200,
        "name": "FENGYUN 1C DEB",
        "group": "fengyun-1c-debris",
        "lat": -60.29265640363826,
        "lon": 83.0087434212199,
        "alt_km": 690.0741227479357,
        "timestamp": "2025-12-17T13:48:37.842043+00:00",
        "meta_object_name": "FENGYUN 1C DEB",
        "meta_object_id": "1999-025DTZ",
        "meta_epoch": "2025-12-15T11:03:42.742368",
        "meta_mean_motion": 14.58789977,
        "meta_eccentricity": 0.00334445,
        "meta_inclination": 99.3871,
        "meta_ra_of_asc_node": 63.7678,
        "meta_arg_of_pericenter": 358.7454,
        "meta_mean_anomaly": 1.3652,
        "meta_ephemeris_type": 0,
        "meta_classification_type": "U",
        "meta_norad_cat_id": 36200,
        "meta_element_set_no": 999,
        "meta_rev_at_epoch": 73400,
        "meta_bstar": 0.0024385699,
        "meta_mean_motion_dot": 0.00011445,
        "meta_mean_motion_ddot": 0,
        "tle_line1": "1 36200U 99025DTZ 25349.46091137  .00011445  00000+0  24386-2 0  9999",
        "tle_line2": "2 36200  99.3871  63.7678 0033444 358.7454   1.3652 14.58789977734007"
      },
      "geometry": {
        "type": "Point",
        "coordinates": [
          83.0087434212199,
          -60.29265640363826
        ]
      }
    },
    {
      "type": "Feature",
      "properties": {
        "norad_id": 36203,
        "name": "FENGYUN 1C DEB",
        "group": "fengyun-1c-debris",
        "lat": -70.23897196561225,
        "lon": 89.49044462527335,
        "alt_km": 669.3161721334227,
        "timestamp": "2025-12-17T13:48:37.842052+00:00",
        "meta_object_name": "FENGYUN 1C DEB",
        "meta_object_id": "1999-025DUC",
        "meta_epoch": "2025-12-16T02:34:12.047232",
        "meta_mean_motion": 14.78467362,
        "meta_eccentricity": 0.00836343,
        "meta_inclination": 99.0958,
        "meta_ra_of_asc_node": 294.3166,
        "meta_arg_of_pericenter": 138.0502,
        "meta_mean_anomaly": 222.7152,
        "meta_ephemeris_type": 0,
        "meta_classification_type": "U",
        "meta_norad_cat_id": 36203,
        "meta_element_set_no": 999,
        "meta_rev_at_epoch": 63479,
        "meta_bstar": 0.00071031238,
        "meta_mean_motion_dot": 5.428e-05,
        "meta_mean_motion_ddot": 0,
        "tle_line1": "1 36203U 99025DUC 25350.10708388  .00005428  00000+0  71031-3 0  9992",
        "tle_line2": "2 36203  99.0958 294.3166 0083634 138.0502 222.7152 14.78467362634798"
      },
      "geometry": {
        "type": "Point",
        "coordinates": [
          89.49044462527335,
          -70.23897196561225
        ]
      }
    },
    {
      "type": "Feature",
      "properties": {
        "norad_id": 36204,
        "name": "FENGYUN 1C DEB",
        "group": "fengyun-1c-debris",
        "lat": -18.74276531861497,
        "lon": 92.19913141688563,
        "alt_km": 795.3729891750017,
        "timestamp": "2025-12-17T13:48:37.842062+00:00",
        "meta_object_name": "FENGYUN 1C DEB",
        "meta_object_id": "1999-025DUD",
        "meta_epoch": "2025-12-14T23:57:56.249280",
        "meta_mean_motion": 14.34595483,
        "meta_eccentricity": 0.0019975,
        "meta_inclination": 99.2907,
        "meta_ra_of_asc_node": 86.2463,
        "meta_arg_of_pericenter": 157.0269,
        "meta_mean_anomaly": 203.1811,
        "meta_ephemeris_type": 0,
        "meta_classification_type": "U",
        "meta_norad_cat_id": 36204,
        "meta_element_set_no": 999,
        "meta_rev_at_epoch": 94460,
        "meta_bstar": 0.00088642407,
        "meta_mean_motion_dot": 2.46e-05,
        "meta_mean_motion_ddot": 0,
        "tle_line1": "1 36204U 99025DUD 25348.99856770  .00002460  00000+0  88642-3 0  9995",
        "tle_line2": "2 36204  99.2907  86.2463 0019975 157.0269 203.1811 14.34595483944608"
      },
      "geometry": {
        "type": "Point",
        "coordinates": [
          92.19913141688563,
          -18.74276531861497
        ]
      }
    },
    {
      "type": "Feature",
      "properties": {
        "norad_id": 36206,
        "name": "FENGYUN 1C DEB",
        "group": "fengyun-1c-debris",
        "lat": 48.81957300782531,
        "lon": -155.64360753791192,
        "alt_km": 828.0349946843498,
        "timestamp": "2025-12-17T13:48:37.842071+00:00",
        "meta_object_name": "FENGYUN 1C DEB",
        "meta_object_id": "1999-025DUF",
        "meta_epoch": "2025-12-16T08:29:03.735744",
        "meta_mean_motion": 14.21592437,
        "meta_eccentricity": 0.00302163,
        "meta_inclination": 98.4786,
        "meta_ra_of_asc_node": 13.3653,
        "meta_arg_of_pericenter": 8.6843,
        "meta_mean_anomaly": 351.4852,
        "meta_ephemeris_type": 0,
        "meta_classification_type": "U",
        "meta_norad_cat_id": 36206,
        "meta_element_set_no": 999,
        "meta_rev_at_epoch": 64472,
        "meta_bstar": 0.00060166506,
        "meta_mean_motion_dot": 1.283e-05,
        "meta_mean_motion_ddot": 0,
        "tle_line1": "1 36206U 99025DUF 25350.35351546  .00001283  00000+0  60167-3 0  9995",
        "tle_line2": "2 36206  98.4786  13.3653 0030216   8.6843 351.4852 14.21592437644722"
      },
      "geometry": {
        "type": "Point",
        "coordinates": [
          -155.64360753791192,
          48.81957300782531
        ]
      }
    },
    {
      "type": "Feature",
      "properties": {
        "norad_id": 36211,
        "name": "FENGYUN 1C DEB",
        "group": "fengyun-1c-debris",
        "lat": -11.126752441595363,
        "lon": -13.707374907826718,
        "alt_km": 940.3358213190668,
        "timestamp": "2025-12-17T13:48:37.842081+00:00",
        "meta_object_name": "FENGYUN 1C DEB",
        "meta_object_id": "1999-025DUL",
        "meta_epoch": "2025-12-17T05:26:42.632448",
        "meta_mean_motion": 14.26006756,
        "meta_eccentricity": 0.02666891,
        "meta_inclination": 98.5066,
        "meta_ra_of_asc_node": 344.267,
        "meta_arg_of_pericenter": 215.6598,
        "meta_mean_anomaly": 142.6511,
        "meta_ephemeris_type": 0,
        "meta_classification_type": "U",
        "meta_norad_cat_id": 36211,
        "meta_element_set_no": 999,
        "meta_rev_at_epoch": 94433,
        "meta_bstar": 0.00032949047,
        "meta_mean_motion_dot": 1.092e-05,
        "meta_mean_motion_ddot": 0,
        "tle_line1": "1 36211U 99025DUL 25351.22688232  .00001092  00000+0  32949-3 0  9998",
        "tle_line2": "2 36211  98.5066 344.2670 0266689 215.6598 142.6511 14.26006756944338"
      },
      "geometry": {
        "type": "Point",
        "coordinates": [
          -13.707374907826718,
          -11.126752441595363
        ]
      }
    },
    {
      "type": "Feature",
      "properties": {
        "norad_id": 36216,
        "name": "FENGYUN 1C DEB",
        "group": "fengyun-1c-debris",
        "lat": -52.39263449025046,
        "lon": -179.69871648791718,
        "alt_km": 857.1351127291464,
        "timestamp": "2025-12-17T13:48:37.842090+00:00",
        "meta_object_name": "FENGYUN 1C DEB",
        "meta_object_id": "1999-025DUR",
        "meta_epoch": "2025-12-17T07:38:09.186432",
        "meta_mean_motion": 14.18864688,
        "meta_eccentricity": 0.00447181,
        "meta_inclination": 98.6072,
        "meta_ra_of_asc_node": 11.3911,
        "meta_arg_of_pericenter": 4.7845,
        "meta_mean_anomaly": 355.375,
        "meta_ephemeris_type": 0,
        "meta_classification_type": "U",
        "meta_norad_cat_id": 36216,
        "meta_element_set_no": 999,
        "meta_rev_at_epoch": 64437,
        "meta_bstar": 0.0003394001,
        "meta_mean_motion_dot": 6.71e-06,
        "meta_mean_motion_ddot": 0,
        "tle_line1": "1 36216U 99025DUR 25351.31816188  .00000671  00000+0  33940-3 0  9990",
        "tle_line2": "2 36216  98.6072  11.3911 0044718   4.7845 355.3750 14.18864688644376"
      },
      "geometry": {
        "type": "Point",
        "coordinates": [
          -179.69871648791718,
          -52.39263449025046
        ]
      }
    }
  ]
}